DELTA 2 R/B(1)          
1 20453U 90008B   26061.44271042  .00074557  00000+0  90521-3 0  9997
2 20453  35.6028 222.3764 0086982 191.5547 168.3190 15.54850817925009
COSMOS 2058             
1 20465U 90010A   26061.96086854  .00004858  00000+0  28704-3 0  9996
2 20465  82.4665  54.0570 0009871   5.6195 354.5144 15.11247125941225
SL-14 R/B               
1 20466U 90010B   26061.94222799  .00000471  00000+0  54211-4 0  9995
2 20466  82.4992 273.7285 0018965 325.8784  34.1210 14.83561864927481
SL-14 R/B               
1 20511U 90018B   26061.95357582  .00000627  00000+0  75662-4 0  9990
2 20511  82.5191 229.3863 0017570 112.4856 247.8221 14.82135873921580
HST                     
1 20580U 90037B   26061.37345004  .00009122  00000+0  30343-3 0  9994
2 20580  28.4700  89.9045 0001638  52.0942 307.9801 15.29345912772198
SL-16 R/B               
1 20625U 90046B   26061.91078194 -.00000169  00000+0 -62600-4 0  9993
2 20625  71.0004 312.1516 0016117 308.7258  51.2423 14.15014759847437
COSMOS 2084             
1 20663U 90055A   26061.94757851  .00003382  00000+0  24648-3 0  9999
2 20663  62.7925 358.5709 0018157 188.5153 171.5643 15.05599794935301
SL-6 R/B(2)             
1 20666U 90055D   26061.92101902  .00002342  00000+0  18425-3 0  9991
2 20666  62.7820 276.8694 0023706 345.3552  14.6858 15.03555592937173
SL-8 R/B                
1 20775U 90078B   26061.92262379  .00016399  00000+0  48176-3 0  9996
2 20775  82.8990 257.3971 0363896  36.7307 325.8260 14.88792936808294
SL-8 R/B                
1 21088U 91006B   26061.88148520  .00000046  00000+0  30930-4 0  9994
2 21088  82.9463 175.1067 0023426  56.6915  65.6886 13.77493260763130
OKEAN-3                 
1 21397U 91039A   26061.82983837  .00003694  00000+0  25973-3 0  9997
2 21397  82.5201 343.4875 0014358   2.8339 357.2966 15.04744996864007
COSMOS 2151             
1 21422U 91042A   26061.94619872  .00002131  00000+0  16867-3 0  9995
2 21422  82.4931  90.1829 0014143  83.7123 276.5712 15.00072719862183
