CCSDS_OMM_VERS = 2.0
CREATION_DATE  = 
ORIGINATOR     = 

OBJECT_NAME    = DELTA 2 R/B(1)
OBJECT_ID      = 1990-008B
CENTER_NAME    = EARTH
REF_FRAME      = TEME
TIME_SYSTEM    = UTC
MEAN_ELEMENT_THEORY = SGP/SGP4

EPOCH          = 2026-03-02T10:37:30.180288
MEAN_MOTION    = 15.54850817
ECCENTRICITY   = .00869822
INCLINATION    = 35.6028
RA_OF_ASC_NODE = 222.3764
ARG_OF_PERICENTER = 191.5547
MEAN_ANOMALY   = 168.3190

EPHEMERIS_TYPE = 0
CLASSIFICATION_TYPE = U
NORAD_CAT_ID   = 20453
ELEMENT_SET_NO = 999
REV_AT_EPOCH   = 92500
BSTAR          = .9052081E-3
MEAN_MOTION_DOT = .74557E-3
MEAN_MOTION_DDOT = 0

CCSDS_OMM_VERS = 2.0
CREATION_DATE  = 
ORIGINATOR     = 

OBJECT_NAME    = COSMOS 2058
OBJECT_ID      = 1990-010A
CENTER_NAME    = EARTH
REF_FRAME      = TEME
TIME_SYSTEM    = UTC
MEAN_ELEMENT_THEORY = SGP/SGP4

EPOCH          = 2026-03-02T23:03:39.041856
MEAN_MOTION    = 15.11247125
ECCENTRICITY   = .00098718
INCLINATION    = 82.4665
RA_OF_ASC_NODE = 54.0570
ARG_OF_PERICENTER = 5.6195
MEAN_ANOMALY   = 354.5144

EPHEMERIS_TYPE = 0
CLASSIFICATION_TYPE = U
NORAD_CAT_ID   = 20465
ELEMENT_SET_NO = 999
REV_AT_EPOCH   = 94122
BSTAR          = .28703755E-3
MEAN_MOTION_DOT = .4858E-4
MEAN_MOTION_DDOT = 0

CCSDS_OMM_VERS = 2.0
CREATION_DATE  = 
ORIGINATOR     = 

OBJECT_NAME    = SL-14 R/B
OBJECT_ID      = 1990-010B
CENTER_NAME    = EARTH
REF_FRAME      = TEME
TIME_SYSTEM    = UTC
MEAN_ELEMENT_THEORY = SGP/SGP4

EPOCH          = 2026-03-02T22:36:48.498336
MEAN_MOTION    = 14.83561864
ECCENTRICITY   = .00189657
INCLINATION    = 82.4992
RA_OF_ASC_NODE = 273.7285
ARG_OF_PERICENTER = 325.8784
MEAN_ANOMALY   = 34.1210

EPHEMERIS_TYPE = 0
CLASSIFICATION_TYPE = U
NORAD_CAT_ID   = 20466
ELEMENT_SET_NO = 999
REV_AT_EPOCH   = 92748
BSTAR          = .54211437E-4
MEAN_MOTION_DOT = .471E-5
MEAN_MOTION_DDOT = 0

CCSDS_OMM_VERS = 2.0
CREATION_DATE  = 
ORIGINATOR     = 

OBJECT_NAME    = SL-14 R/B
OBJECT_ID      = 1990-018B
CENTER_NAME    = EARTH
REF_FRAME      = TEME
TIME_SYSTEM    = UTC
MEAN_ELEMENT_THEORY = SGP/SGP4

EPOCH          = 2026-03-02T22:53:08.950848
MEAN_MOTION    = 14.82135873
ECCENTRICITY   = .00175709
INCLINATION    = 82.5191
RA_OF_ASC_NODE = 229.3863
ARG_OF_PERICENTER = 112.4856
MEAN_ANOMALY   = 247.8221

EPHEMERIS_TYPE = 0
CLASSIFICATION_TYPE = U
NORAD_CAT_ID   = 20511
ELEMENT_SET_NO = 999
REV_AT_EPOCH   = 92158
BSTAR          = .75662433E-4
MEAN_MOTION_DOT = .627E-5
MEAN_MOTION_DDOT = 0

CCSDS_OMM_VERS = 2.0
CREATION_DATE  = 
ORIGINATOR     = 

OBJECT_NAME    = HST
OBJECT_ID      = 1990-037B
CENTER_NAME    = EARTH
REF_FRAME      = TEME
TIME_SYSTEM    = UTC
MEAN_ELEMENT_THEORY = SGP/SGP4

EPOCH          = 2026-03-02T08:57:46.083456
MEAN_MOTION    = 15.29345912
ECCENTRICITY   = .00016383
INCLINATION    = 28.4700
RA_OF_ASC_NODE = 89.9045
ARG_OF_PERICENTER = 52.0942
MEAN_ANOMALY   = 307.9801

EPHEMERIS_TYPE = 0
CLASSIFICATION_TYPE = U
NORAD_CAT_ID   = 20580
ELEMENT_SET_NO = 999
REV_AT_EPOCH   = 77219
BSTAR          = .3034347E-3
MEAN_MOTION_DOT = .9122E-4
MEAN_MOTION_DDOT = 0

CCSDS_OMM_VERS = 2.0
CREATION_DATE  = 
ORIGINATOR     = 

OBJECT_NAME    = SL-16 R/B
OBJECT_ID      = 1990-046B
CENTER_NAME    = EARTH
REF_FRAME      = TEME
TIME_SYSTEM    = UTC
MEAN_ELEMENT_THEORY = SGP/SGP4

EPOCH          = 2026-03-02T21:51:31.559616
MEAN_MOTION    = 14.15014759
ECCENTRICITY   = .00161178
INCLINATION    = 71.0004
RA_OF_ASC_NODE = 312.1516
ARG_OF_PERICENTER = 308.7258
MEAN_ANOMALY   = 51.2423

EPHEMERIS_TYPE = 0
CLASSIFICATION_TYPE = U
NORAD_CAT_ID   = 20625
ELEMENT_SET_NO = 999
REV_AT_EPOCH   = 84743
BSTAR          = -.62599843E-4
MEAN_MOTION_DOT = -.169E-5
MEAN_MOTION_DDOT = 0

CCSDS_OMM_VERS = 2.0
CREATION_DATE  = 
ORIGINATOR     = 

OBJECT_NAME    = COSMOS 2084
OBJECT_ID      = 1990-055A
CENTER_NAME    = EARTH
REF_FRAME      = TEME
TIME_SYSTEM    = UTC
MEAN_ELEMENT_THEORY = SGP/SGP4

EPOCH          = 2026-03-02T22:44:30.783264
MEAN_MOTION    = 15.05599794
ECCENTRICITY   = .00181572
INCLINATION    = 62.7925
RA_OF_ASC_NODE = 358.5709
ARG_OF_PERICENTER = 188.5153
MEAN_ANOMALY   = 171.5643

EPHEMERIS_TYPE = 0
CLASSIFICATION_TYPE = U
NORAD_CAT_ID   = 20663
ELEMENT_SET_NO = 999
REV_AT_EPOCH   = 93530
BSTAR          = .2464751E-3
MEAN_MOTION_DOT = .3382E-4
MEAN_MOTION_DDOT = 0

CCSDS_OMM_VERS = 2.0
CREATION_DATE  = 
ORIGINATOR     = 

OBJECT_NAME    = SL-6 R/B(2)
OBJECT_ID      = 1990-055D
CENTER_NAME    = EARTH
REF_FRAME      = TEME
TIME_SYSTEM    = UTC
MEAN_ELEMENT_THEORY = SGP/SGP4

EPOCH          = 2026-03-02T22:06:16.043328
MEAN_MOTION    = 15.03555592
ECCENTRICITY   = .0023706
INCLINATION    = 62.7820
RA_OF_ASC_NODE = 276.8694
ARG_OF_PERICENTER = 345.3552
MEAN_ANOMALY   = 14.6858

EPHEMERIS_TYPE = 0
CLASSIFICATION_TYPE = U
NORAD_CAT_ID   = 20666
ELEMENT_SET_NO = 999
REV_AT_EPOCH   = 93717
BSTAR          = .1842519E-3
MEAN_MOTION_DOT = .2342E-4
MEAN_MOTION_DDOT = 0

CCSDS_OMM_VERS = 2.0
CREATION_DATE  = 
ORIGINATOR     = 

OBJECT_NAME    = SL-8 R/B
OBJECT_ID      = 1990-078B
CENTER_NAME    = EARTH
REF_FRAME      = TEME
TIME_SYSTEM    = UTC
MEAN_ELEMENT_THEORY = SGP/SGP4

EPOCH          = 2026-03-02T22:08:34.695456
MEAN_MOTION    = 14.88792936
ECCENTRICITY   = .03638965
INCLINATION    = 82.8990
RA_OF_ASC_NODE = 257.3971
ARG_OF_PERICENTER = 36.7307
MEAN_ANOMALY   = 325.8260

EPHEMERIS_TYPE = 0
CLASSIFICATION_TYPE = U
NORAD_CAT_ID   = 20775
ELEMENT_SET_NO = 999
REV_AT_EPOCH   = 80829
BSTAR          = .48175971E-3
MEAN_MOTION_DOT = .16399E-3
MEAN_MOTION_DDOT = 0

CCSDS_OMM_VERS = 2.0
CREATION_DATE  = 
ORIGINATOR     = 

OBJECT_NAME    = SL-8 R/B
OBJECT_ID      = 1991-006B
CENTER_NAME    = EARTH
REF_FRAME      = TEME
TIME_SYSTEM    = UTC
MEAN_ELEMENT_THEORY = SGP/SGP4

EPOCH          = 2026-03-02T21:09:20.321280
MEAN_MOTION    = 13.77493260
ECCENTRICITY   = .00234267
INCLINATION    = 82.9463
RA_OF_ASC_NODE = 175.1067
ARG_OF_PERICENTER = 56.6915
MEAN_ANOMALY   = 65.6886

EPHEMERIS_TYPE = 0
CLASSIFICATION_TYPE = U
NORAD_CAT_ID   = 21088
ELEMENT_SET_NO = 999
REV_AT_EPOCH   = 76313
BSTAR          = .30929757E-4
MEAN_MOTION_DOT = .46E-6
MEAN_MOTION_DDOT = 0

CCSDS_OMM_VERS = 2.0
CREATION_DATE  = 
ORIGINATOR     = 

OBJECT_NAME    = OKEAN-3
OBJECT_ID      = 1991-039A
CENTER_NAME    = EARTH
REF_FRAME      = TEME
TIME_SYSTEM    = UTC
MEAN_ELEMENT_THEORY = SGP/SGP4

EPOCH          = 2026-03-02T19:54:58.035168
MEAN_MOTION    = 15.04744996
ECCENTRICITY   = .00143588
INCLINATION    = 82.5201
RA_OF_ASC_NODE = 343.4875
ARG_OF_PERICENTER = 2.8339
MEAN_ANOMALY   = 357.2966

EPHEMERIS_TYPE = 0
CLASSIFICATION_TYPE = U
NORAD_CAT_ID   = 21397
ELEMENT_SET_NO = 999
REV_AT_EPOCH   = 86400
BSTAR          = .25972635E-3
MEAN_MOTION_DOT = .3694E-4
MEAN_MOTION_DDOT = 0

CCSDS_OMM_VERS = 2.0
CREATION_DATE  = 
ORIGINATOR     = 

OBJECT_NAME    = COSMOS 2151
OBJECT_ID      = 1991-042A
CENTER_NAME    = EARTH
REF_FRAME      = TEME
TIME_SYSTEM    = UTC
MEAN_ELEMENT_THEORY = SGP/SGP4

EPOCH          = 2026-03-02T22:42:31.569408
MEAN_MOTION    = 15.00072719
ECCENTRICITY   = .00141439
INCLINATION    = 82.4931
RA_OF_ASC_NODE = 90.1829
ARG_OF_PERICENTER = 83.7123
MEAN_ANOMALY   = 276.5712

EPHEMERIS_TYPE = 0
CLASSIFICATION_TYPE = U
NORAD_CAT_ID   = 21422
ELEMENT_SET_NO = 999
REV_AT_EPOCH   = 86218
BSTAR          = .16866687E-3
MEAN_MOTION_DOT = .2131E-4
MEAN_MOTION_DDOT = 0

